OBJECT_NAME,OBJECT_ID,EPOCH,MEAN_MOTION,ECCENTRICITY,INCLINATION,RA_OF_ASC_NODE,ARG_OF_PERICENTER,MEAN_ANOMALY,EPHEMERIS_TYPE,CLASSIFICATION_TYPE,NORAD_CAT_ID,ELEMENT_SET_NO,REV_AT_EPOCH,BSTAR,MEAN_MOTION_DOT,MEAN_MOTION_DDOT
SL-16 R/B,1994-077B,2026-06-05T00:53:35.438208,14.15574943,.00024849,70.9809,168.7242,335.2967,24.8037,0,U,23405,999,62859,-.11722436E-3,-.277E-5,0
ARIANE 40+ R/B,1995-021B,2026-06-05T02:26:04.549920,14.39826486,.00057712,98.4412,226.3505,233.2281,187.1906,0,U,23561,999,63182,.10412692E-3,.283E-5,0
SL-16 R/B,1995-058B,2026-06-05T06:15:00.690624,14.15505739,.0013239,71.0218,356.4006,336.4878,23.5638,0,U,23705,999,58024,-.87118507E-4,-.218E-5,0
SL-16 R/B,1996-051B,2026-06-05T06:36:24.818400,14.12442026,.00144445,70.7634,349.8600,355.1089,4.9887,0,U,24298,999,53401,.98872739E-4,.133E-5,0
ORBVIEW 2 (SEASTAR),1997-037A,2026-06-05T07:27:05.607648,14.35547089,.00027916,98.8680,323.0012,140.6914,219.4474,0,U,24883,999,52104,.10887087E-3,.267E-5,0
SL-16 R/B,1998-043G,2026-06-05T03:42:41.585472,14.26066500,.00108005,98.8359,110.2107,117.8485,242.3790,0,U,25400,999,45145,.47292517E-4,.68E-6,0
SL-16 R/B,1998-045B,2026-06-05T00:23:45.539520,14.16203709,.00095459,71.0121,357.9262,255.9297,104.0766,0,U,25407,999,43946,.12770784E-3,.205E-5,0
ISS (ZARYA),1998-067A,2026-06-05T01:31:51.136320,15.49608794,.00070026,51.6329,0.1115,133.6992,226.4578,0,U,25544,999,56987,.14618279E-3,.7786E-4,0
CZ-4B R/B,1999-025C,2026-06-05T00:06:00.768384,14.18281340,.00382646,98.6489,198.1488,93.7135,328.8870,0,U,25732,999,40054,.50137373E-4,.61E-6,0
OKEAN-O,1999-039A,2026-06-05T01:07:05.166048,14.80452392,.00018814,97.9319,214.9833,81.9355,278.2070,0,U,25860,999,44731,.10330265E-3,.738E-5,0
SL-16 R/B,1999-039B,2026-06-05T01:54:44.069472,14.81832794,.00141863,97.9842,214.9766,338.9702,21.0926,0,U,25861,999,44980,.77386255E-4,.558E-5,0
DELTA 2 R/B,1999-041E,2026-06-04T17:14:09.464640,14.11992743,.050106,51.7658,313.6046,245.1619,109.6424,0,U,25876,999,37532,.15724E-3,.743E-5,0
HELIOS 1B,1999-064A,2026-06-04T17:42:58.917024,14.87972682,.0002276,98.1624,60.5173,108.6312,251.5150,0,U,25977,999,69820,.19546E-3,.1734E-4,0
TERRA,1999-068A,2026-06-05T05:38:13.335648,14.61093305,.00008321,97.9461,206.2545,255.4360,146.5617,0,U,25994,999,40786,.95145711E-4,.423E-5,0
SL-16 R/B,2000-006B,2026-06-05T01:18:34.771968,14.15837437,.00148827,71.0034,274.1351,42.3809,317.8461,0,U,26070,999,36092,-.13214388E-4,-.74E-6,0
TITAN 4B R/B,2000-047B,2026-06-05T06:30:16.779456,15.10124647,.00454381,67.9870,154.1128,299.1056,60.5548,0,U,26474,999,40613,.19766121E-3,.317E-4,0
ENVISAT,2002-009A,2026-06-05T03:23:21.014880,14.39061898,.00013483,98.3829,107.7287,91.7227,278.9954,0,U,27386,999,27175,.50214386E-4,.112E-5,0
IDEFIX & ARIANE 42P R/B,2002-021B,2026-06-05T02:29:28.396032,14.31076377,.00106883,98.5941,93.7180,293.4361,66.5698,0,U,27422,999,25652,.11779376E-3,.267E-5,0
AQUA,2002-022A,2026-06-05T07:00:53.374752,14.62139181,.00015688,98.4271,125.3381,55.7651,50.5025,0,U,27424,999,28153,.18131385E-3,.862E-5,0
CZ-4B R/B,2002-024C,2026-06-05T00:06:00.994752,14.14562359,.00509527,98.8705,208.9027,134.1743,289.9695,0,U,27432,999,24158,.50062193E-4,.53E-6,0
MIDORI II (ADEOS-II),2002-056A,2026-06-04T17:56:46.084704,14.29342653,.0002182,98.7873,114.9024,94.4192,265.7239,0,U,27597,999,22273,.1455E-3,.325E-5,0
H-2A R/B,2002-056E,2026-06-05T03:20:10.464864,14.33816773,.00688334,98.3306,113.2528,261.0264,110.9721,0,U,27601,999,22664,.10018613E-3,.244E-5,0
CZ-4B R/B,2003-049C,2026-06-05T06:23:31.315488,14.55091764,.00474373,98.6894,154.6383,325.7129,34.1007,0,U,28059,999,19933,.90783951E-4,.345E-5,0
CZ-2C R/B,2004-012C,2026-06-04T17:30:35.057952,15.76591401,.0008803,97.7083,229.9670,340.1675,19.9247,0,U,28222,999,21793,.59019E-3,.94695E-3,0
SL-16 R/B,2004-021B,2026-06-05T01:40:08.887584,14.14613082,.00074724,71.0024,49.1200,268.4538,91.5729,0,U,28353,999,13519,-.40409399E-4,-.125E-5,0
CZ-4B R/B,2004-035C,2026-06-05T02:28:17.059872,15.30439114,.00314137,97.3367,189.3137,21.3014,338.9527,0,U,28415,999,19327,.2864201E-3,.8482E-4,0
CZ-2C R/B,2004-046B,2026-06-05T06:31:10.941024,14.27023827,.01381032,98.1953,65.7959,255.7597,102.8213,0,U,28480,999,12099,.50619938E-4,.94E-6,0
ARIANE 5 R/B,2004-049H,2026-06-05T04:58:43.368960,14.85431158,.00851261,98.2714,327.9983,67.8357,293.1863,0,U,28499,999,15878,.99936963E-4,.855E-5,0
CZ-2D R/B,2005-024B,2026-06-05T07:00:54.959328,15.68231466,.00053115,97.3496,175.1383,79.1543,281.0316,0,U,28738,999,15347,.46636312E-3,.52198E-3,0
ALOS (DAICHI),2006-002A,2026-06-05T02:39:38.338560,14.70025608,.00018932,98.1318,111.7165,64.9508,295.1895,0,U,28931,999,8632,.22573202E-3,.1305E-4,0
