SL-16 R/B               
1 23405U 94077B   26156.03721572 -.00000277  00000+0 -11722-3 0  9991
2 23405  70.9809 168.7242 0002484 335.2967  24.8037 14.15574943628599
ARIANE 40+ R/B          
1 23561U 95021B   26156.10144155  .00000283  00000+0  10413-3 0  9999
2 23561  98.4412 226.3505 0005771 233.2281 187.1906 14.39826486631824
SL-16 R/B               
1 23705U 95058B   26156.26042466 -.00000218  00000+0 -87119-4 0  9996
2 23705  71.0218 356.4006 0013239 336.4878  23.5638 14.15505739580245
SL-16 R/B               
1 24298U 96051B   26156.27528725  .00000133  00000+0  98873-4 0  9999
2 24298  70.7634 349.8600 0014444 355.1089   4.9887 14.12442026534017
ORBVIEW 2 (SEASTAR)     
1 24883U 97037A   26156.31048157  .00000267  00000+0  10887-3 0  9991
2 24883  98.8680 323.0012 0002791 140.6914 219.4474 14.35547089521040
SL-16 R/B               
1 25400U 98043G   26156.15464798  .00000068  00000+0  47293-4 0  9991
2 25400  98.8359 110.2107 0010800 117.8485 242.3790 14.26066500451456
SL-16 R/B               
1 25407U 98045B   26156.01649930  .00000205  00000+0  12771-3 0  9993
2 25407  71.0121 357.9262 0009545 255.9297 104.0766 14.16203709439461
ISS (ZARYA)             
1 25544U 98067A   26156.06378630  .00007786  00000+0  14618-3 0  9993
2 25544  51.6329   0.1115 0007002 133.6992 226.4578 15.49608794569870
CZ-4B R/B               
1 25732U 99025C   26156.00417556  .00000061  00000+0  50137-4 0  9998
2 25732  98.6489 198.1488 0038264  93.7135 328.8870 14.18281340400546
OKEAN-O                 
1 25860U 99039A   26156.04658757  .00000738  00000+0  10330-3 0  9990
2 25860  97.9319 214.9833 0001881  81.9355 278.2070 14.80452392447313
SL-16 R/B               
1 25861U 99039B   26156.07967673  .00000558  00000+0  77386-4 0  9999
2 25861  97.9842 214.9766 0014186 338.9702  21.0926 14.81832794449802
DELTA 2 R/B             
1 25876U 99041E   26155.71816510  .00000743  00000+0  15724-3 0  9994
2 25876  51.7658 313.6046 0501060 245.1619 109.6424 14.11992743375322
HELIOS 1B               
1 25977U 99064A   26155.73818191  .00001734  00000+0  19546-3 0  9997
2 25977  98.1624  60.5173 0002276 108.6312 251.5150 14.87972682698200
TERRA                   
1 25994U 99068A   26156.23487657  .00000423  00000+0  95146-4 0  9990
2 25994  97.9461 206.2545 0000832 255.4360 146.5617 14.61093305407866
SL-16 R/B               
1 26070U 00006B   26156.05456912 -.00000074  00000+0 -13214-4 0  9990
2 26070  71.0034 274.1351 0014882  42.3809 317.8461 14.15837437360927
TITAN 4B R/B            
1 26474U 00047B   26156.27102754  .00003170  00000+0  19766-3 0  9994
2 26474  67.9870 154.1128 0045438 299.1056  60.5548 15.10124647406133
ENVISAT                 
1 27386U 02009A   26156.14121545  .00000112  00000+0  50214-4 0  9999
2 27386  98.3829 107.7287 0001348  91.7227 278.9954 14.39061898271758
IDEFIX & ARIANE 42P R/B 
1 27422U 02021B   26156.10380088  .00000267  00000+0  11779-3 0  9992
2 27422  98.5941  93.7180 0010688 293.4361  66.5698 14.31076377256523
AQUA                    
1 27424U 02022A   26156.29228443  .00000862  00000+0  18131-3 0  9991
2 27424  98.4271 125.3381 0001568  55.7651  50.5025 14.62139181281536
CZ-4B R/B               
1 27432U 02024C   26156.00417818  .00000053  00000+0  50062-4 0  9999
2 27432  98.8705 208.9027 0050952 134.1743 289.9695 14.14562359241587
MIDORI II (ADEOS-II)    
1 27597U 02056A   26155.74775561  .00000325  00000+0  14550-3 0  9991
2 27597  98.7873 114.9024 0002182  94.4192 265.7239 14.29342653222736
H-2A R/B                
1 27601U 02056E   26156.13901001  .00000244  00000+0  10019-3 0  9997
2 27601  98.3306 113.2528 0068833 261.0264 110.9721 14.33816773226642
CZ-4B R/B               
1 28059U 03049C   26156.26633467  .00000345  00000+0  90784-4 0  9990
2 28059  98.6894 154.6383 0047437 325.7129  34.1007 14.55091764199336
CZ-2C R/B               
1 28222U 04012C   26155.72957243  .00094695  00000+0  59019-3 0  9990
2 28222  97.7083 229.9670 0008803 340.1675  19.9247 15.76591401217935
SL-16 R/B               
1 28353U 04021B   26156.06954731 -.00000125  00000+0 -40409-4 0  9993
2 28353  71.0024  49.1200 0007472 268.4538  91.5729 14.14613082135191
CZ-4B R/B               
1 28415U 04035C   26156.10297523  .00008482  00000+0  28642-3 0  9997
2 28415  97.3367 189.3137 0031413  21.3014 338.9527 15.30439114193272
CZ-2C R/B               
1 28480U 04046B   26156.27165441  .00000094  00000+0  50620-4 0  9995
2 28480  98.1953  65.7959 0138103 255.7597 102.8213 14.27023827120990
ARIANE 5 R/B            
1 28499U 04049H   26156.20744640  .00000855  00000+0  99937-4 0  9994
2 28499  98.2714 327.9983 0085126  67.8357 293.1863 14.85431158158785
CZ-2D R/B               
1 28738U 05024B   26156.29230277  .00052198  00000+0  46636-3 0  9993
2 28738  97.3496 175.1383 0005311  79.1543 281.0316 15.68231466153478
ALOS (DAICHI)           
1 28931U 06002A   26156.11086040  .00001305  00000+0  22573-3 0  9991
2 28931  98.1318 111.7165 0001893  64.9508 295.1895 14.70025608 86321
